{
  "type": "FeatureCollection",
  "features": [
    {
      "type": "Feature",
      "properties": {
        "norad_id": 37781,
        "name": "HAIYANG-2A",
        "group": "resource",
        "lat": -70.36320406367052,
        "lon": 140.08557947271976,
        "alt_km": 976.4530336261778,
        "timestamp": "2025-12-12T14:39:17.628645+00:00",
        "meta_object_name": "HAIYANG-2A",
        "meta_object_id": "2011-043A",
        "meta_epoch": "2025-12-12T06:28:02.720352",
        "meta_mean_motion": 13.78834946,
        "meta_eccentricity": 0.00016544,
        "meta_inclination": 99.3382,
        "meta_ra_of_asc_node": 347.211,
        "meta_arg_of_pericenter": 82.8221,
        "meta_mean_anomaly": 277.3118,
        "meta_ephemeris_type": 0,
        "meta_classification_type": "U",
        "meta_norad_cat_id": 37781,
        "meta_element_set_no": 999,
        "meta_rev_at_epoch": 72092,
        "meta_bstar": -3.9607621e-05,
        "meta_mean_motion_dot": -8.4e-07,
        "meta_mean_motion_ddot": 0,
        "tle_line1": "1 37781U 11043A   25346.26947593 -.00000084  00000+0 -39608-4 0  9993",
        "tle_line2": "2 37781  99.3382 347.2110 0001654  82.8221 277.3118 13.78834946720921"
      },
      "geometry": {
        "type": "Point",
        "coordinates": [
          140.08557947271976,
          -70.36320406367052
        ]
      }
    },
    {
      "type": "Feature",
      "properties": {
        "norad_id": 37791,
        "name": "RASAT",
        "group": "resource",
        "lat": -32.05595982541701,
        "lon": 80.9637853298384,
        "alt_km": 675.8512960385497,
        "timestamp": "2025-12-12T14:39:17.628655+00:00",
        "meta_object_name": "RASAT",
        "meta_object_id": "2011-044D",
        "meta_epoch": "2025-12-12T06:58:02.796096",
        "meta_mean_motion": 14.67908815,
        "meta_eccentricity": 0.00219093,
        "meta_inclination": 98.0646,
        "meta_ra_of_asc_node": 75.5543,
        "meta_arg_of_pericenter": 66.3064,
        "meta_mean_anomaly": 9.977,
        "meta_ephemeris_type": 0,
        "meta_classification_type": "U",
        "meta_norad_cat_id": 37791,
        "meta_element_set_no": 999,
        "meta_rev_at_epoch": 76576,
        "meta_bstar": 0.00019253464,
        "meta_mean_motion_dot": 1.056e-05,
        "meta_mean_motion_ddot": 0,
        "tle_line1": "1 37791U 11044D   25346.29031014  .00001056  00000+0  19253-3 0  9991",
        "tle_line2": "2 37791  98.0646  75.5543 0021909  66.3064   9.9770 14.67908815765769"
      },
      "geometry": {
        "type": "Point",
        "coordinates": [
          80.9637853298384,
          -32.05595982541701
        ]
      }
    },
    {
      "type": "Feature",
      "properties": {
        "norad_id": 37841,
        "name": "SRMSAT",
        "group": "resource",
        "lat": 13.478373577932956,
        "lon": -112.56202377787788,
        "alt_km": 858.4202308016229,
        "timestamp": "2025-12-12T14:39:17.628664+00:00",
        "meta_object_name": "SRMSAT",
        "meta_object_id": "2011-058D",
        "meta_epoch": "2025-12-11T16:31:02.191584",
        "meta_mean_motion": 14.1151099,
        "meta_eccentricity": 0.00117304,
        "meta_inclination": 19.9707,
        "meta_ra_of_asc_node": 114.3146,
        "meta_arg_of_pericenter": 301.8177,
        "meta_mean_anomaly": 177.8356,
        "meta_ephemeris_type": 0,
        "meta_classification_type": "U",
        "meta_norad_cat_id": 37841,
        "meta_element_set_no": 999,
        "meta_rev_at_epoch": 73129,
        "meta_bstar": 0.0001411213,
        "meta_mean_motion_dot": 5.25e-06,
        "meta_mean_motion_ddot": 0,
        "tle_line1": "1 37841U 11058D   25345.68821981  .00000525  00000+0  14112-3 0  9993",
        "tle_line2": "2 37841  19.9707 114.3146 0011730 301.8177 177.8356 14.11510990731297"
      },
      "geometry": {
        "type": "Point",
        "coordinates": [
          -112.56202377787788,
          13.478373577932956
        ]
      }
    },
    {
      "type": "Feature",
      "properties": {
        "norad_id": 38012,
        "name": "PLEIADES 1A",
        "group": "resource",
        "lat": 51.74897143636067,
        "lon": -110.10410304020078,
        "alt_km": 692.4715346474522,
        "timestamp": "2025-12-12T14:39:17.628674+00:00",
        "meta_object_name": "PLEIADES 1A",
        "meta_object_id": "2011-076F",
        "meta_epoch": "2025-12-12T07:47:01.529664",
        "meta_mean_motion": 14.58561322,
        "meta_eccentricity": 0.00013225,
        "meta_inclination": 98.1819,
        "meta_ra_of_asc_node": 59.0988,
        "meta_arg_of_pericenter": 73.7685,
        "meta_mean_anomaly": 351.2428,
        "meta_ephemeris_type": 0,
        "meta_classification_type": "U",
        "meta_norad_cat_id": 38012,
        "meta_element_set_no": 999,
        "meta_rev_at_epoch": 74475,
        "meta_bstar": 0.00018044179,
        "meta_mean_motion_dot": 7.93e-06,
        "meta_mean_motion_ddot": 0,
        "tle_line1": "1 38012U 11076F   25346.32432326  .00000793  00000+0  18044-3 0  9992",
        "tle_line2": "2 38012  98.1819  59.0988 0001322  73.7685 351.2428 14.58561322744754"
      },
      "geometry": {
        "type": "Point",
        "coordinates": [
          -110.10410304020078,
          51.74897143636067
        ]
      }
    },
    {
      "type": "Feature",
      "properties": {
        "norad_id": 38038,
        "name": "ZIYUAN 1-02C (ZY 1-02C)",
        "group": "resource",
        "lat": 43.97588398979883,
        "lon": 44.39666846610883,
        "alt_km": 761.7045372644325,
        "timestamp": "2025-12-12T14:39:17.628684+00:00",
        "meta_object_name": "ZIYUAN 1-02C (ZY 1-02C)",
        "meta_object_id": "2011-079A",
        "meta_epoch": "2025-12-12T08:06:11.083392",
        "meta_mean_motion": 14.38011648,
        "meta_eccentricity": 0.00071551,
        "meta_inclination": 98.4328,
        "meta_ra_of_asc_node": 52.3582,
        "meta_arg_of_pericenter": 139.5691,
        "meta_mean_anomaly": 292.7526,
        "meta_ephemeris_type": 0,
        "meta_classification_type": "U",
        "meta_norad_cat_id": 38038,
        "meta_element_set_no": 999,
        "meta_rev_at_epoch": 73235,
        "meta_bstar": 0.0002955392,
        "meta_mean_motion_dot": 8.51e-06,
        "meta_mean_motion_ddot": 0,
        "tle_line1": "1 38038U 11079A   25346.33762828  .00000851  00000+0  29554-3 0  9990",
        "tle_line2": "2 38038  98.4328  52.3582 0007155 139.5691 292.7526 14.38011648732354"
      },
      "geometry": {
        "type": "Point",
        "coordinates": [
          44.39666846610883,
          43.97588398979883
        ]
      }
    },
    {
      "type": "Feature",
      "properties": {
        "norad_id": 38046,
        "name": "ZIYUAN 3-1 (ZY 3-1)",
        "group": "resource",
        "lat": 39.99811333862186,
        "lon": -120.9073293201289,
        "alt_km": 361.0611484126248,
        "timestamp": "2025-12-12T14:39:17.628693+00:00",
        "meta_object_name": "ZIYUAN 3-1 (ZY 3-1)",
        "meta_object_id": "2012-001A",
        "meta_epoch": "2025-12-12T07:56:15.003744",
        "meta_mean_motion": 15.68492907,
        "meta_eccentricity": 0.00017515,
        "meta_inclination": 97.1752,
        "meta_ra_of_asc_node": 52.7385,
        "meta_arg_of_pericenter": 354.5136,
        "meta_mean_anomaly": 5.6106,
        "meta_ephemeris_type": 0,
        "meta_classification_type": "U",
        "meta_norad_cat_id": 38046,
        "meta_element_set_no": 999,
        "meta_rev_at_epoch": 77490,
        "meta_bstar": 0.00084545122,
        "meta_mean_motion_dot": 0.00096182,
        "meta_mean_motion_ddot": 0,
        "tle_line1": "1 38046U 12001A   25346.33072921  .00096182  00000+0  84545-3 0  9996",
        "tle_line2": "2 38046  97.1752  52.7385 0001751 354.5136   5.6106 15.68492907774901"
      },
      "geometry": {
        "type": "Point",
        "coordinates": [
          -120.9073293201289,
          39.99811333862186
        ]
      }
    },
    {
      "type": "Feature",
      "properties": {
        "norad_id": 38338,
        "name": "ARIRANG-3 (KOMPSAT-3)",
        "group": "resource",
        "lat": 23.04184623463428,
        "lon": -62.3748226951467,
        "alt_km": 684.4912906598956,
        "timestamp": "2025-12-12T14:39:17.628702+00:00",
        "meta_object_name": "ARIRANG-3 (KOMPSAT-3)",
        "meta_object_id": "2012-025B",
        "meta_epoch": "2025-12-12T07:58:37.885152",
        "meta_mean_motion": 14.61712021,
        "meta_eccentricity": 0.00053911,
        "meta_inclination": 98.3321,
        "meta_ra_of_asc_node": 300.9187,
        "meta_arg_of_pericenter": 340.1729,
        "meta_mean_anomaly": 19.9262,
        "meta_ephemeris_type": 0,
        "meta_classification_type": "U",
        "meta_norad_cat_id": 38338,
        "meta_element_set_no": 999,
        "meta_rev_at_epoch": 72404,
        "meta_bstar": 0.00020586189,
        "meta_mean_motion_dot": 9.77e-06,
        "meta_mean_motion_ddot": 0,
        "tle_line1": "1 38338U 12025B   25346.33238293  .00000977  00000+0  20586-3 0  9994",
        "tle_line2": "2 38338  98.3321 300.9187 0005391 340.1729  19.9262 14.61712021724046"
      },
      "geometry": {
        "type": "Point",
        "coordinates": [
          -62.3748226951467,
          23.04184623463428
        ]
      }
    }
  ]
}